{
    "links": {
        "self": "http://www.neowsapp.com/rest/v1/neo/3841675?api_key=iIulBulltgU6a56xZRHN4H3l9WmuAYTsLGpBGhQ2"
    },
    "id": "3841675",
    "neo_reference_id": "3841675",
    "name": "(2019 HM4)",
    "designation": "2019 HM4",
    "nasa_jpl_url": "http://ssd.jpl.nasa.gov/sbdb.cgi?sstr=3841675",
    "absolute_magnitude_h": 26.5,
    "estimated_diameter": {
        "kilometers": {
            "estimated_diameter_min": 0.0133215567,
            "estimated_diameter_max": 0.0297879063
        },
        "meters": {
            "estimated_diameter_min": 13.3215566698,
            "estimated_diameter_max": 29.7879062798
        },
        "miles": {
            "estimated_diameter_min": 0.008277629,
            "estimated_diameter_max": 0.0185093411
        },
        "feet": {
            "estimated_diameter_min": 43.7058959846,
            "estimated_diameter_max": 97.7293544391
        }
    },
    "is_potentially_hazardous_asteroid": false,
    "close_approach_data": [
        {
            "close_approach_date": "1926-03-22",
            "close_approach_date_full": "1926-Mar-22 11:29",
            "epoch_date_close_approach": -1381581060000,
            "relative_velocity": {
                "kilometers_per_second": "14.3379136044",
                "kilometers_per_hour": "51616.488975862",
                "miles_per_hour": "32072.478941696"
            },
            "miss_distance": {
                "astronomical": "0.2766524796",
                "lunar": "107.6178145644",
                "kilometers": "41386621.678378452",
                "miles": "25716454.2231165576"
            },
            "orbiting_body": "Earth"
        },
        {
            "close_approach_date": "1957-03-15",
            "close_approach_date_full": "1957-Mar-15 15:24",
            "epoch_date_close_approach": -403864560000,
            "relative_velocity": {
                "kilometers_per_second": "17.24845818",
                "kilometers_per_hour": "62094.4494479824",
                "miles_per_hour": "38583.076102831"
            },
            "miss_distance": {
                "astronomical": "0.3743496031",
                "lunar": "145.6219956059",
                "kilometers": "56001903.259105397",
                "miles": "34797969.0819405986"
            },
            "orbiting_body": "Earth"
        },
        {
            "close_approach_date": "2019-05-02",
            "close_approach_date_full": "2019-May-02 08:36",
            "epoch_date_close_approach": 1556786160000,
            "relative_velocity": {
                "kilometers_per_second": "7.9320456012",
                "kilometers_per_hour": "28555.3641642875",
                "miles_per_hour": "17743.1928053041"
            },
            "miss_distance": {
                "astronomical": "0.0215030743",
                "lunar": "8.3646959027",
                "kilometers": "3216814.113731741",
                "miles": "1998835.6030343858"
            },
            "orbiting_body": "Earth"
        }
    ],
    "orbital_data": {
        "orbit_id": "1",
        "orbit_determination_date": "2019-05-02 21:50:07",
        "first_observation_date": "2019-04-29",
        "last_observation_date": "2019-05-02",
        "data_arc_in_days": 3,
        "observations_used": 61,
        "orbit_uncertainty": "7",
        "minimum_orbit_intersection": ".0183896",
        "jupiter_tisserand_invariant": "3.815",
        "epoch_osculation": "2459000.5",
        "eccentricity": ".4565604139882295",
        "semi_major_axis": "1.886733155841738",
        "inclination": "9.282948263379085",
        "ascending_node_longitude": "37.87159987110687",
        "orbital_period": "946.59487547724",
        "perihelion_distance": "1.025325485125316",
        "perihelion_argument": "182.3660289505314",
        "aphelion_distance": "2.748140826558161",
        "perihelion_time": "2458605.212293855090",
        "mean_anomaly": "150.3320775325593",
        "mean_motion": ".3803105312803438",
        "equinox": "J2000",
        "orbit_class": {
            "orbit_class_type": "AMO",
            "orbit_class_description": "Near-Earth asteroid orbits similar to that of 1221 Amor",
            "orbit_class_range": "1.017 AU < q (perihelion) < 1.3 AU"
        }
    },
    "is_sentry_object": false
}